{"type":"FeatureCollection","features":[{"type":"Feature","properties":{"dxcc_id":"ON","name":"Belgium","prefix":"ON","lat":50.5,"lon":4.5,"continent":"EU","cq_zone":14,"itu_zone":27,"deleted":false},"geometry":{"type":"Polygon","coordinates":[[[2.7,48.7],[6.3,48.7],[6.3,52.3],[2.7,52.3],[2.7,48.7]]]}},{"type":"Feature","properties":{"dxcc_id":"PA","name":"Netherlands","prefix":"PA","lat":52.3,"lon":5.3,"continent":"EU","cq_zone":14,"itu_zone":27,"deleted":false},"geometry":{"type":"Polygon","coordinates":[[[3.5,50.5],[7.1,50.5],[7.1,54.099999999999994],[3.5,54.099999999999994],[3.5,50.5]]]}},{"type":"Feature","properties":{"dxcc_id":"DL","name":"Germany","prefix":"DL","lat":51.0,"lon":10.0,"continent":"EU","cq_zone":14,"itu_zone":28,"deleted":false},"geometry":{"type":"Polygon","coordinates":[[[6.0,47.0],[14.0,47.0],[14.0,55.0],[6.0,55.0],[6.0,47.0]]]}},{"type":"Feature","properties":{"dxcc_id":"F","name":"France","prefix":"F","lat":46.0,"lon":2.0,"continent":"EU","cq_zone":14,"itu_zone":27,"deleted":false},"geometry":{"type":"Polygon","coordinates":[[[-2.0,42.0],[6.0,42.0],[6.0,50.0],[-2.0,50.0],[-2.0,42.0]]]}},{"type":"Feature","properties":{"dxcc_id":"G","name":"England","prefix":"G","lat":52.0,"lon":-1.0,"continent":"EU","cq_zone":14,"itu_zone":27,"deleted":false},"geometry":{"type":"Polygon","coordinates":[[[-2.8,50.2],[0.8,50.2],[0.8,53.8],[-2.8,53.8],[-2.8,50.2]]]}},{"type":"Feature","properties":{"dxcc_id":"GM","name":"Scotland","prefix":"GM","lat":57.0,"lon":-4.0,"continent":"EU","cq_zone":14,"itu_zone":27,"deleted":false},"geometry":{"type":"Polygon","coordinates":[[[-5.8,55.2],[-2.2,55.2],[-2.2,58.8],[-5.8,58.8],[-5.8,55.2]]]}},{"type":"Feature","properties":{"dxcc_id":"GW","name":"Wales","prefix":"GW","lat":52.5,"lon":-3.5,"continent":"EU","cq_zone":14,"itu_zone":27,"deleted":false},"geometry":{"type":"Polygon","coordinates":[[[-5.3,50.7],[-1.7,50.7],[-1.7,54.3],[-5.3,54.3],[-5.3,50.7]]]}},{"type":"Feature","properties":{"dxcc_id":"GI","name":"Northern Ireland","prefix":"GI","lat":54.7,"lon":-6.7,"continent":"EU","cq_zone":14,"itu_zone":27,"deleted":false},"geometry":{"type":"Polygon","coordinates":[[[-8.5,52.900000000000006],[-4.9,52.900000000000006],[-4.9,56.5],[-8.5,56.5],[-8.5,52.900000000000006]]]}},{"type":"Feature","properties":{"dxcc_id":"EI","name":"Ireland","prefix":"EI","lat":53.0,"lon":-8.0,"continent":"EU","cq_zone":14,"itu_zone":27,"deleted":false},"geometry":{"type":"Polygon","coordinates":[[[-9.8,51.2],[-6.2,51.2],[-6.2,54.8],[-9.8,54.8],[-9.8,51.2]]]}},{"type":"Feature","properties":{"dxcc_id":"SP","name":"Poland","prefix":"SP","lat":52.0,"lon":20.0,"continent":"EU","cq_zone":15,"itu_zone":28,"deleted":false},"geometry":{"type":"Polygon","coordinates":[[[18.2,50.2],[21.8,50.2],[21.8,53.8],[18.2,53.8],[18.2,50.2]]]}},{"type":"Feature","properties":{"dxcc_id":"OK","name":"Czech Republic","prefix":"OK","lat":50.0,"lon":15.5,"continent":"EU","cq_zone":15,"itu_zone":28,"deleted":false},"geometry":{"type":"Polygon","coordinates":[[[13.7,48.2],[17.3,48.2],[17.3,51.8],[13.7,51.8],[13.7,48.2]]]}},{"type":"Feature","properties":{"dxcc_id":"OE","name":"Austria","prefix":"OE","lat":47.5,"lon":14.0,"continent":"EU","cq_zone":15,"itu_zone":28,"deleted":false},"geometry":{"type":"Polygon","coordinates":[[[12.2,45.7],[15.8,45.7],[15.8,49.3],[12.2,49.3],[12.2,45.7]]]}},{"type":"Feature","properties":{"dxcc_id":"HB","name":"Switzerland","prefix":"HB","lat":47.0,"lon":8.0,"continent":"EU","cq_zone":14,"itu_zone":28,"deleted":false},"geometry":{"type":"Polygon","coordinates":[[[6.2,45.2],[9.8,45.2],[9.8,48.8],[6.2,48.8],[6.2,45.2]]]}},{"type":"Feature","properties":{"dxcc_id":"I","name":"Italy","prefix":"I","lat":42.5,"lon":12.5,"continent":"EU","cq_zone":15,"itu_zone":28,"deleted":false},"geometry":{"type":"Polygon","coordinates":[[[10.7,40.7],[14.3,40.7],[14.3,44.3],[10.7,44.3],[10.7,40.7]]]}},{"type":"Feature","properties":{"dxcc_id":"EA","name":"Spain","prefix":"EA","lat":40.0,"lon":-4.0,"continent":"EU","cq_zone":14,"itu_zone":37,"deleted":false},"geometry":{"type":"Polygon","coordinates":[[[-8.0,36.0],[0.0,36.0],[0.0,44.0],[-8.0,44.0],[-8.0,36.0]]]}},{"type":"Feature","properties":{"dxcc_id":"CT","name":"Portugal","prefix":"CT","lat":39.5,"lon":-8.0,"continent":"EU","cq_zone":14,"itu_zone":37,"deleted":false},"geometry":{"type":"Polygon","coordinates":[[[-9.8,37.7],[-6.2,37.7],[-6.2,41.3],[-9.8,41.3],[-9.8,37.7]]]}},{"type":"Feature","properties":{"dxcc_id":"LX","name":"Luxembourg","prefix":"LX","lat":49.8,"lon":6.1,"continent":"EU","cq_zone":14,"itu_zone":27,"deleted":false},"geometry":{"type":"Polygon","coordinates":[[[4.3,48.0],[7.8999999999999995,48.0],[7.8999999999999995,51.599999999999994],[4.3,51.599999999999994],[4.3,48.0]]]}},{"type":"Feature","properties":{"dxcc_id":"OZ","name":"Denmark","prefix":"OZ","lat":56.0,"lon":10.0,"continent":"EU","cq_zone":14,"itu_zone":18,"deleted":false},"geometry":{"type":"Polygon","coordinates":[[[8.2,54.2],[11.8,54.2],[11.8,57.8],[8.2,57.8],[8.2,54.2]]]}},{"type":"Feature","properties":{"dxcc_id":"SM","name":"Sweden","prefix":"SM","lat":60.0,"lon":16.0,"continent":"EU","cq_zone":18,"itu_zone":18,"deleted":false},"geometry":{"type":"Polygon","coordinates":[[[14.2,58.2],[17.8,58.2],[17.8,61.8],[14.2,61.8],[14.2,58.2]]]}},{"type":"Feature","properties":{"dxcc_id":"LA","name":"Norway","prefix":"LA","lat":62.0,"lon":10.0,"continent":"EU","cq_zone":18,"itu_zone":18,"deleted":false},"geometry":{"type":"Polygon","coordinates":[[[8.2,60.2],[11.8,60.2],[11.8,63.8],[8.2,63.8],[8.2,60.2]]]}},{"type":"Feature","properties":{"dxcc_id":"OH","name":"Finland","prefix":"OH","lat":64.0,"lon":26.0,"continent":"EU","cq_zone":18,"itu_zone":18,"deleted":false},"geometry":{"type":"Polygon","coordinates":[[[24.2,62.2],[27.8,62.2],[27.8,65.8],[24.2,65.8],[24.2,62.2]]]}},{"type":"Feature","properties":{"dxcc_id":"ES","name":"Estonia","prefix":"ES","lat":59.0,"lon":25.0,"continent":"EU","cq_zone":15,"itu_zone":29,"deleted":false},"geometry":{"type":"Polygon","coordinates":[[[23.2,57.2],[26.8,57.2],[26.8,60.8],[23.2,60.8],[23.2,57.2]]]}},{"type":"Feature","properties":{"dxcc_id":"YL","name":"Latvia","prefix":"YL","lat":57.0,"lon":25.0,"continent":"EU","cq_zone":15,"itu_zone":29,"deleted":false},"geometry":{"type":"Polygon","coordinates":[[[23.2,55.2],[26.8,55.2],[26.8,58.8],[23.2,58.8],[23.2,55.2]]]}},{"type":"Feature","properties":{"dxcc_id":"LY","name":"Lithuania","prefix":"LY","lat":55.5,"lon":24.0,"continent":"EU","cq_zone":15,"itu_zone":29,"deleted":false},"geometry":{"type":"Polygon","coordinates":[[[22.2,53.7],[25.8,53.7],[25.8,57.3],[22.2,57.3],[22.2,53.7]]]}},{"type":"Feature","properties":{"dxcc_id":"HA","name":"Hungary","prefix":"HA","lat":47.0,"lon":19.0,"continent":"EU","cq_zone":15,"itu_zone":28,"deleted":false},"geometry":{"type":"Polygon","coordinates":[[[17.2,45.2],[20.8,45.2],[20.8,48.8],[17.2,48.8],[17.2,45.2]]]}},{"type":"Feature","properties":{"dxcc_id":"OM","name":"Slovakia","prefix":"OM","lat":48.7,"lon":19.5,"continent":"EU","cq_zone":15,"itu_zone":28,"deleted":false},"geometry":{"type":"Polygon","coordinates":[[[17.7,46.900000000000006],[21.3,46.900000000000006],[21.3,50.5],[17.7,50.5],[17.7,46.900000000000006]]]}},{"type":"Feature","properties":{"dxcc_id":"9A","name":"Croatia","prefix":"9A","lat":45.5,"lon":16.0,"continent":"EU","cq_zone":15,"itu_zone":28,"deleted":false},"geometry":{"type":"Polygon","coordinates":[[[14.2,43.7],[17.8,43.7],[17.8,47.3],[14.2,47.3],[14.2,43.7]]]}},{"type":"Feature","properties":{"dxcc_id":"S5","name":"Slovenia","prefix":"S5","lat":46.1,"lon":14.8,"continent":"EU","cq_zone":15,"itu_zone":28,"deleted":false},"geometry":{"type":"Polygon","coordinates":[[[13.0,44.300000000000004],[16.6,44.300000000000004],[16.6,47.9],[13.0,47.9],[13.0,44.300000000000004]]]}},{"type":"Feature","properties":{"dxcc_id":"YU","name":"Serbia","prefix":"YU","lat":44.0,"lon":21.0,"continent":"EU","cq_zone":15,"itu_zone":28,"deleted":false},"geometry":{"type":"Polygon","coordinates":[[[19.2,42.2],[22.8,42.2],[22.8,45.8],[19.2,45.8],[19.2,42.2]]]}},{"type":"Feature","properties":{"dxcc_id":"4O","name":"Montenegro","prefix":"4O","lat":42.8,"lon":19.3,"continent":"EU","cq_zone":15,"itu_zone":28,"deleted":false},"geometry":{"type":"Polygon","coordinates":[[[17.5,41.0],[21.1,41.0],[21.1,44.599999999999994],[17.5,44.599999999999994],[17.5,41.0]]]}},{"type":"Feature","properties":{"dxcc_id":"Z6","name":"Kosovo","prefix":"Z6","lat":42.6,"lon":21.2,"continent":"EU","cq_zone":15,"itu_zone":28,"deleted":false},"geometry":{"type":"Polygon","coordinates":[[[19.4,40.800000000000004],[23.0,40.800000000000004],[23.0,44.4],[19.4,44.4],[19.4,40.800000000000004]]]}},{"type":"Feature","properties":{"dxcc_id":"E7","name":"Bosnia-Herzegovina","prefix":"E7","lat":44.2,"lon":17.5,"continent":"EU","cq_zone":15,"itu_zone":28,"deleted":false},"geometry":{"type":"Polygon","coordinates":[[[15.7,42.400000000000006],[19.3,42.400000000000006],[19.3,46.0],[15.7,46.0],[15.7,42.400000000000006]]]}},{"type":"Feature","properties":{"dxcc_id":"Z3","name":"North Macedonia","prefix":"Z3","lat":41.6,"lon":21.7,"continent":"EU","cq_zone":15,"itu_zone":28,"deleted":false},"geometry":{"type":"Polygon","coordinates":[[[19.9,39.800000000000004],[23.5,39.800000000000004],[23.5,43.4],[19.9,43.4],[19.9,39.800000000000004]]]}},{"type":"Feature","properties":{"dxcc_id":"LZ","name":"Bulgaria","prefix":"LZ","lat":43.0,"lon":25.0,"continent":"EU","cq_zone":20,"itu_zone":28,"deleted":false},"geometry":{"type":"Polygon","coordinates":[[[23.2,41.2],[26.8,41.2],[26.8,44.8],[23.2,44.8],[23.2,41.2]]]}},{"type":"Feature","properties":{"dxcc_id":"SV","name":"Greece","prefix":"SV","lat":39.0,"lon":22.0,"continent":"EU","cq_zone":20,"itu_zone":28,"deleted":false},"geometry":{"type":"Polygon","coordinates":[[[20.2,37.2],[23.8,37.2],[23.8,40.8],[20.2,40.8],[20.2,37.2]]]}},{"type":"Feature","properties":{"dxcc_id":"YO","name":"Romania","prefix":"YO","lat":46.0,"lon":25.0,"continent":"EU","cq_zone":20,"itu_zone":28,"deleted":false},"geometry":{"type":"Polygon","coordinates":[[[23.2,44.2],[26.8,44.2],[26.8,47.8],[23.2,47.8],[23.2,44.2]]]}},{"type":"Feature","properties":{"dxcc_id":"UR","name":"Ukraine","prefix":"UR","lat":49.0,"lon":32.0,"continent":"EU","cq_zone":16,"itu_zone":29,"deleted":false},"geometry":{"type":"Polygon","coordinates":[[[30.2,47.2],[33.8,47.2],[33.8,50.8],[30.2,50.8],[30.2,47.2]]]}},{"type":"Feature","properties":{"dxcc_id":"UB","name":"European Russia","prefix":"UB","lat":56.0,"lon":40.0,"continent":"EU","cq_zone":16,"itu_zone":29,"deleted":false},"geometry":{"type":"Polygon","coordinates":[[[31.0,47.0],[49.0,47.0],[49.0,65.0],[31.0,65.0],[31.0,47.0]]]}},{"type":"Feature","properties":{"dxcc_id":"UA9","name":"Asiatic Russia","prefix":"UA9","lat":60.0,"lon":80.0,"continent":"AS","cq_zone":17,"itu_zone":30,"deleted":false},"geometry":{"type":"Polygon","coordinates":[[[71.0,51.0],[89.0,51.0],[89.0,69.0],[71.0,69.0],[71.0,51.0]]]}},{"type":"Feature","properties":{"dxcc_id":"UA0","name":"Asiatic Russia Far East","prefix":"UA0","lat":55.0,"lon":125.0,"continent":"AS","cq_zone":18,"itu_zone":32,"deleted":false},"geometry":{"type":"Polygon","coordinates":[[[116.0,46.0],[134.0,46.0],[134.0,64.0],[116.0,64.0],[116.0,46.0]]]}},{"type":"Feature","properties":{"dxcc_id":"BY","name":"China","prefix":"BY","lat":36.0,"lon":104.0,"continent":"AS","cq_zone":24,"itu_zone":33,"deleted":false},"geometry":{"type":"Polygon","coordinates":[[[95.0,27.0],[113.0,27.0],[113.0,45.0],[95.0,45.0],[95.0,27.0]]]}},{"type":"Feature","properties":{"dxcc_id":"JA","name":"Japan","prefix":"JA","lat":36.0,"lon":138.0,"continent":"AS","cq_zone":25,"itu_zone":45,"deleted":false},"geometry":{"type":"Polygon","coordinates":[[[136.2,34.2],[139.8,34.2],[139.8,37.8],[136.2,37.8],[136.2,34.2]]]}},{"type":"Feature","properties":{"dxcc_id":"HL","name":"South Korea","prefix":"HL","lat":37.0,"lon":127.5,"continent":"AS","cq_zone":25,"itu_zone":44,"deleted":false},"geometry":{"type":"Polygon","coordinates":[[[125.7,35.2],[129.3,35.2],[129.3,38.8],[125.7,38.8],[125.7,35.2]]]}},{"type":"Feature","properties":{"dxcc_id":"VK","name":"Australia","prefix":"VK","lat":-25.0,"lon":133.0,"continent":"OC","cq_zone":29,"itu_zone":55,"deleted":false},"geometry":{"type":"Polygon","coordinates":[[[124.0,-34.0],[142.0,-34.0],[142.0,-16.0],[124.0,-16.0],[124.0,-34.0]]]}},{"type":"Feature","properties":{"dxcc_id":"ZL","name":"New Zealand","prefix":"ZL","lat":-42.0,"lon":173.0,"continent":"OC","cq_zone":32,"itu_zone":60,"deleted":false},"geometry":{"type":"Polygon","coordinates":[[[171.2,-43.8],[174.8,-43.8],[174.8,-40.2],[171.2,-40.2],[171.2,-43.8]]]}},{"type":"Feature","properties":{"dxcc_id":"W","name":"United States","prefix":"W","lat":38.0,"lon":-97.0,"continent":"NA","cq_zone":5,"itu_zone":8,"deleted":false},"geometry":{"type":"Polygon","coordinates":[[[-106.0,29.0],[-88.0,29.0],[-88.0,47.0],[-106.0,47.0],[-106.0,29.0]]]}},{"type":"Feature","properties":{"dxcc_id":"VE","name":"Canada","prefix":"VE","lat":56.0,"lon":-96.0,"continent":"NA","cq_zone":3,"itu_zone":4,"deleted":false},"geometry":{"type":"Polygon","coordinates":[[[-105.0,47.0],[-87.0,47.0],[-87.0,65.0],[-105.0,65.0],[-105.0,47.0]]]}},{"type":"Feature","properties":{"dxcc_id":"XE","name":"Mexico","prefix":"XE","lat":23.0,"lon":-102.0,"continent":"NA","cq_zone":7,"itu_zone":10,"deleted":false},"geometry":{"type":"Polygon","coordinates":[[[-106.0,19.0],[-98.0,19.0],[-98.0,27.0],[-106.0,27.0],[-106.0,19.0]]]}},{"type":"Feature","properties":{"dxcc_id":"TI","name":"Costa Rica","prefix":"TI","lat":9.9,"lon":-84.1,"continent":"NA","cq_zone":7,"itu_zone":11,"deleted":false},"geometry":{"type":"Polygon","coordinates":[[[-85.89999999999999,8.1],[-82.3,8.1],[-82.3,11.700000000000001],[-85.89999999999999,11.700000000000001],[-85.89999999999999,8.1]]]}},{"type":"Feature","properties":{"dxcc_id":"HP","name":"Panama","prefix":"HP","lat":9.0,"lon":-79.5,"continent":"NA","cq_zone":7,"itu_zone":11,"deleted":false},"geometry":{"type":"Polygon","coordinates":[[[-81.3,7.2],[-77.7,7.2],[-77.7,10.8],[-81.3,10.8],[-81.3,7.2]]]}},{"type":"Feature","properties":{"dxcc_id":"HH","name":"Haiti","prefix":"HH","lat":19.0,"lon":-72.5,"continent":"NA","cq_zone":8,"itu_zone":11,"deleted":false},"geometry":{"type":"Polygon","coordinates":[[[-74.3,17.2],[-70.7,17.2],[-70.7,20.8],[-74.3,20.8],[-74.3,17.2]]]}},{"type":"Feature","properties":{"dxcc_id":"HI","name":"Dominican Republic","prefix":"HI","lat":18.7,"lon":-70.2,"continent":"NA","cq_zone":8,"itu_zone":11,"deleted":false},"geometry":{"type":"Polygon","coordinates":[[[-72.0,16.9],[-68.4,16.9],[-68.4,20.5],[-72.0,20.5],[-72.0,16.9]]]}},{"type":"Feature","properties":{"dxcc_id":"KP4","name":"Puerto Rico","prefix":"KP4","lat":18.3,"lon":-66.0,"continent":"NA","cq_zone":8,"itu_zone":11,"deleted":false},"geometry":{"type":"Polygon","coordinates":[[[-67.8,16.5],[-64.2,16.5],[-64.2,20.1],[-67.8,20.1],[-67.8,16.5]]]}},{"type":"Feature","properties":{"dxcc_id":"CO","name":"Cuba","prefix":"CO","lat":22.0,"lon":-80.0,"continent":"NA","cq_zone":8,"itu_zone":11,"deleted":false},"geometry":{"type":"Polygon","coordinates":[[[-81.8,20.2],[-78.2,20.2],[-78.2,23.8],[-81.8,23.8],[-81.8,20.2]]]}},{"type":"Feature","properties":{"dxcc_id":"YV","name":"Venezuela","prefix":"YV","lat":8.0,"lon":-66.0,"continent":"SA","cq_zone":9,"itu_zone":12,"deleted":false},"geometry":{"type":"Polygon","coordinates":[[[-67.8,6.2],[-64.2,6.2],[-64.2,9.8],[-67.8,9.8],[-67.8,6.2]]]}},{"type":"Feature","properties":{"dxcc_id":"PY","name":"Brazil","prefix":"PY","lat":-10.0,"lon":-55.0,"continent":"SA","cq_zone":11,"itu_zone":15,"deleted":false},"geometry":{"type":"Polygon","coordinates":[[[-64.0,-19.0],[-46.0,-19.0],[-46.0,-1.0],[-64.0,-1.0],[-64.0,-19.0]]]}},{"type":"Feature","properties":{"dxcc_id":"LU","name":"Argentina","prefix":"LU","lat":-34.0,"lon":-65.0,"continent":"SA","cq_zone":13,"itu_zone":14,"deleted":false},"geometry":{"type":"Polygon","coordinates":[[[-69.0,-38.0],[-61.0,-38.0],[-61.0,-30.0],[-69.0,-30.0],[-69.0,-38.0]]]}},{"type":"Feature","properties":{"dxcc_id":"CE","name":"Chile","prefix":"CE","lat":-35.0,"lon":-71.0,"continent":"SA","cq_zone":12,"itu_zone":14,"deleted":false},"geometry":{"type":"Polygon","coordinates":[[[-72.8,-36.8],[-69.2,-36.8],[-69.2,-33.2],[-72.8,-33.2],[-72.8,-36.8]]]}},{"type":"Feature","properties":{"dxcc_id":"OA","name":"Peru","prefix":"OA","lat":-10.0,"lon":-75.0,"continent":"SA","cq_zone":10,"itu_zone":12,"deleted":false},"geometry":{"type":"Polygon","coordinates":[[[-79.0,-14.0],[-71.0,-14.0],[-71.0,-6.0],[-79.0,-6.0],[-79.0,-14.0]]]}},{"type":"Feature","properties":{"dxcc_id":"HC","name":"Ecuador","prefix":"HC","lat":-2.0,"lon":-78.0,"continent":"SA","cq_zone":10,"itu_zone":12,"deleted":false},"geometry":{"type":"Polygon","coordinates":[[[-79.8,-3.8],[-76.2,-3.8],[-76.2,-0.19999999999999996],[-79.8,-0.19999999999999996],[-79.8,-3.8]]]}},{"type":"Feature","properties":{"dxcc_id":"CP","name":"Bolivia","prefix":"CP","lat":-17.0,"lon":-65.0,"continent":"SA","cq_zone":10,"itu_zone":12,"deleted":false},"geometry":{"type":"Polygon","coordinates":[[[-69.0,-21.0],[-61.0,-21.0],[-61.0,-13.0],[-69.0,-13.0],[-69.0,-21.0]]]}},{"type":"Feature","properties":{"dxcc_id":"ZP","name":"Paraguay","prefix":"ZP","lat":-23.0,"lon":-58.0,"continent":"SA","cq_zone":11,"itu_zone":14,"deleted":false},"geometry":{"type":"Polygon","coordinates":[[[-59.8,-24.8],[-56.2,-24.8],[-56.2,-21.2],[-59.8,-21.2],[-59.8,-24.8]]]}},{"type":"Feature","properties":{"dxcc_id":"CX","name":"Uruguay","prefix":"CX","lat":-33.0,"lon":-56.0,"continent":"SA","cq_zone":13,"itu_zone":14,"deleted":false},"geometry":{"type":"Polygon","coordinates":[[[-57.8,-34.8],[-54.2,-34.8],[-54.2,-31.2],[-57.8,-31.2],[-57.8,-34.8]]]}},{"type":"Feature","properties":{"dxcc_id":"PZ","name":"Suriname","prefix":"PZ","lat":4.0,"lon":-56.0,"continent":"SA","cq_zone":9,"itu_zone":12,"deleted":false},"geometry":{"type":"Polygon","coordinates":[[[-57.8,2.2],[-54.2,2.2],[-54.2,5.8],[-57.8,5.8],[-57.8,2.2]]]}},{"type":"Feature","properties":{"dxcc_id":"8R","name":"Guyana","prefix":"8R","lat":5.0,"lon":-59.0,"continent":"SA","cq_zone":9,"itu_zone":12,"deleted":false},"geometry":{"type":"Polygon","coordinates":[[[-60.8,3.2],[-57.2,3.2],[-57.2,6.8],[-60.8,6.8],[-60.8,3.2]]]}},{"type":"Feature","properties":{"dxcc_id":"FY","name":"French Guiana","prefix":"FY","lat":4.0,"lon":-53.0,"continent":"SA","cq_zone":9,"itu_zone":12,"deleted":false},"geometry":{"type":"Polygon","coordinates":[[[-54.8,2.2],[-51.2,2.2],[-51.2,5.8],[-54.8,5.8],[-54.8,2.2]]]}},{"type":"Feature","properties":{"dxcc_id":"CN","name":"Morocco","prefix":"CN","lat":32.0,"lon":-6.0,"continent":"AF","cq_zone":33,"itu_zone":37,"deleted":false},"geometry":{"type":"Polygon","coordinates":[[[-7.8,30.2],[-4.2,30.2],[-4.2,33.8],[-7.8,33.8],[-7.8,30.2]]]}},{"type":"Feature","properties":{"dxcc_id":"EA8","name":"Canary Islands","prefix":"EA8","lat":28.1,"lon":-15.4,"continent":"AF","cq_zone":33,"itu_zone":36,"deleted":false},"geometry":{"type":"Polygon","coordinates":[[[-17.2,26.3],[-13.6,26.3],[-13.6,29.900000000000002],[-17.2,29.900000000000002],[-17.2,26.3]]]}},{"type":"Feature","properties":{"dxcc_id":"7X","name":"Algeria","prefix":"7X","lat":28.0,"lon":3.0,"continent":"AF","cq_zone":33,"itu_zone":37,"deleted":false},"geometry":{"type":"Polygon","coordinates":[[[-1.0,24.0],[7.0,24.0],[7.0,32.0],[-1.0,32.0],[-1.0,24.0]]]}},{"type":"Feature","properties":{"dxcc_id":"ZS","name":"South Africa","prefix":"ZS","lat":-29.0,"lon":25.0,"continent":"AF","cq_zone":38,"itu_zone":57,"deleted":false},"geometry":{"type":"Polygon","coordinates":[[[23.2,-30.8],[26.8,-30.8],[26.8,-27.2],[23.2,-27.2],[23.2,-30.8]]]}},{"type":"Feature","properties":{"dxcc_id":"5B","name":"Cyprus","prefix":"5B","lat":35.0,"lon":33.0,"continent":"AS","cq_zone":20,"itu_zone":39,"deleted":false},"geometry":{"type":"Polygon","coordinates":[[[31.2,33.2],[34.8,33.2],[34.8,36.8],[31.2,36.8],[31.2,33.2]]]}},{"type":"Feature","properties":{"dxcc_id":"TA","name":"Turkey","prefix":"TA","lat":39.0,"lon":35.0,"continent":"AS","cq_zone":20,"itu_zone":39,"deleted":false},"geometry":{"type":"Polygon","coordinates":[[[31.0,35.0],[39.0,35.0],[39.0,43.0],[31.0,43.0],[31.0,35.0]]]}},{"type":"Feature","properties":{"dxcc_id":"4X","name":"Israel","prefix":"4X","lat":31.5,"lon":35.0,"continent":"AS","cq_zone":20,"itu_zone":39,"deleted":false},"geometry":{"type":"Polygon","coordinates":[[[33.2,29.7],[36.8,29.7],[36.8,33.3],[33.2,33.3],[33.2,29.7]]]}},{"type":"Feature","properties":{"dxcc_id":"OD","name":"Lebanon","prefix":"OD","lat":33.9,"lon":35.5,"continent":"AS","cq_zone":20,"itu_zone":39,"deleted":false},"geometry":{"type":"Polygon","coordinates":[[[33.7,32.1],[37.3,32.1],[37.3,35.699999999999996],[33.7,35.699999999999996],[33.7,32.1]]]}},{"type":"Feature","properties":{"dxcc_id":"YK","name":"Syria","prefix":"YK","lat":35.0,"lon":38.0,"continent":"AS","cq_zone":20,"itu_zone":39,"deleted":false},"geometry":{"type":"Polygon","coordinates":[[[36.2,33.2],[39.8,33.2],[39.8,36.8],[36.2,36.8],[36.2,33.2]]]}},{"type":"Feature","properties":{"dxcc_id":"JY","name":"Jordan","prefix":"JY","lat":31.0,"lon":36.0,"continent":"AS","cq_zone":20,"itu_zone":39,"deleted":false},"geometry":{"type":"Polygon","coordinates":[[[34.2,29.2],[37.8,29.2],[37.8,32.8],[34.2,32.8],[34.2,29.2]]]}},{"type":"Feature","properties":{"dxcc_id":"HZ","name":"Saudi Arabia","prefix":"HZ","lat":24.0,"lon":45.0,"continent":"AS","cq_zone":21,"itu_zone":39,"deleted":false},"geometry":{"type":"Polygon","coordinates":[[[41.0,20.0],[49.0,20.0],[49.0,28.0],[41.0,28.0],[41.0,20.0]]]}},{"type":"Feature","properties":{"dxcc_id":"A4","name":"Oman","prefix":"A4","lat":22.0,"lon":58.0,"continent":"AS","cq_zone":21,"itu_zone":39,"deleted":false},"geometry":{"type":"Polygon","coordinates":[[[56.2,20.2],[59.8,20.2],[59.8,23.8],[56.2,23.8],[56.2,20.2]]]}},{"type":"Feature","properties":{"dxcc_id":"A6","name":"UAE","prefix":"A6","lat":24.0,"lon":54.0,"continent":"AS","cq_zone":21,"itu_zone":39,"deleted":false},"geometry":{"type":"Polygon","coordinates":[[[52.2,22.2],[55.8,22.2],[55.8,25.8],[52.2,25.8],[52.2,22.2]]]}},{"type":"Feature","properties":{"dxcc_id":"9K","name":"Kuwait","prefix":"9K","lat":29.5,"lon":48.0,"continent":"AS","cq_zone":21,"itu_zone":39,"deleted":false},"geometry":{"type":"Polygon","coordinates":[[[46.2,27.7],[49.8,27.7],[49.8,31.3],[46.2,31.3],[46.2,27.7]]]}},{"type":"Feature","properties":{"dxcc_id":"YI","name":"Iraq","prefix":"YI","lat":33.0,"lon":44.0,"continent":"AS","cq_zone":21,"itu_zone":39,"deleted":false},"geometry":{"type":"Polygon","coordinates":[[[42.2,31.2],[45.8,31.2],[45.8,34.8],[42.2,34.8],[42.2,31.2]]]}},{"type":"Feature","properties":{"dxcc_id":"EP","name":"Iran","prefix":"EP","lat":32.0,"lon":53.0,"continent":"AS","cq_zone":21,"itu_zone":40,"deleted":false},"geometry":{"type":"Polygon","coordinates":[[[49.0,28.0],[57.0,28.0],[57.0,36.0],[49.0,36.0],[49.0,28.0]]]}},{"type":"Feature","properties":{"dxcc_id":"AP","name":"Pakistan","prefix":"AP","lat":30.0,"lon":70.0,"continent":"AS","cq_zone":21,"itu_zone":41,"deleted":false},"geometry":{"type":"Polygon","coordinates":[[[68.2,28.2],[71.8,28.2],[71.8,31.8],[68.2,31.8],[68.2,28.2]]]}},{"type":"Feature","properties":{"dxcc_id":"VU","name":"India","prefix":"VU","lat":20.0,"lon":77.0,"continent":"AS","cq_zone":26,"itu_zone":41,"deleted":false},"geometry":{"type":"Polygon","coordinates":[[[75.2,18.2],[78.8,18.2],[78.8,21.8],[75.2,21.8],[75.2,18.2]]]}},{"type":"Feature","properties":{"dxcc_id":"S2","name":"Bangladesh","prefix":"S2","lat":24.0,"lon":90.0,"continent":"AS","cq_zone":26,"itu_zone":41,"deleted":false},"geometry":{"type":"Polygon","coordinates":[[[88.2,22.2],[91.8,22.2],[91.8,25.8],[88.2,25.8],[88.2,22.2]]]}},{"type":"Feature","properties":{"dxcc_id":"4S","name":"Sri Lanka","prefix":"4S","lat":7.9,"lon":80.7,"continent":"AS","cq_zone":26,"itu_zone":41,"deleted":false},"geometry":{"type":"Polygon","coordinates":[[[78.9,6.1000000000000005],[82.5,6.1000000000000005],[82.5,9.700000000000001],[78.9,9.700000000000001],[78.9,6.1000000000000005]]]}},{"type":"Feature","properties":{"dxcc_id":"XV","name":"Vietnam","prefix":"XV","lat":16.0,"lon":108.0,"continent":"AS","cq_zone":26,"itu_zone":49,"deleted":false},"geometry":{"type":"Polygon","coordinates":[[[106.2,14.2],[109.8,14.2],[109.8,17.8],[106.2,17.8],[106.2,14.2]]]}},{"type":"Feature","properties":{"dxcc_id":"HS","name":"Thailand","prefix":"HS","lat":15.0,"lon":101.0,"continent":"AS","cq_zone":26,"itu_zone":49,"deleted":false},"geometry":{"type":"Polygon","coordinates":[[[99.2,13.2],[102.8,13.2],[102.8,16.8],[99.2,16.8],[99.2,13.2]]]}},{"type":"Feature","properties":{"dxcc_id":"XW","name":"Laos","prefix":"XW","lat":18.0,"lon":104.0,"continent":"AS","cq_zone":26,"itu_zone":49,"deleted":false},"geometry":{"type":"Polygon","coordinates":[[[102.2,16.2],[105.8,16.2],[105.8,19.8],[102.2,19.8],[102.2,16.2]]]}},{"type":"Feature","properties":{"dxcc_id":"XU","name":"Cambodia","prefix":"XU","lat":12.5,"lon":105.0,"continent":"AS","cq_zone":26,"itu_zone":49,"deleted":false},"geometry":{"type":"Polygon","coordinates":[[[103.2,10.7],[106.8,10.7],[106.8,14.3],[103.2,14.3],[103.2,10.7]]]}},{"type":"Feature","properties":{"dxcc_id":"YB","name":"Indonesia","prefix":"YB","lat":-5.0,"lon":120.0,"continent":"OC","cq_zone":28,"itu_zone":51,"deleted":false},"geometry":{"type":"Polygon","coordinates":[[[116.0,-9.0],[124.0,-9.0],[124.0,-1.0],[116.0,-1.0],[116.0,-9.0]]]}},{"type":"Feature","properties":{"dxcc_id":"DU","name":"Philippines","prefix":"DU","lat":13.0,"lon":122.0,"continent":"OC","cq_zone":27,"itu_zone":50,"deleted":false},"geometry":{"type":"Polygon","coordinates":[[[120.2,11.2],[123.8,11.2],[123.8,14.8],[120.2,14.8],[120.2,11.2]]]}},{"type":"Feature","properties":{"dxcc_id":"9M2","name":"West Malaysia","prefix":"9M2","lat":4.0,"lon":109.0,"continent":"OC","cq_zone":28,"itu_zone":54,"deleted":false},"geometry":{"type":"Polygon","coordinates":[[[107.2,2.2],[110.8,2.2],[110.8,5.8],[107.2,5.8],[107.2,2.2]]]}},{"type":"Feature","properties":{"dxcc_id":"BV","name":"Taiwan","prefix":"BV","lat":24.0,"lon":121.0,"continent":"AS","cq_zone":24,"itu_zone":44,"deleted":false},"geometry":{"type":"Polygon","coordinates":[[[119.2,22.2],[122.8,22.2],[122.8,25.8],[119.2,25.8],[119.2,22.2]]]}},{"type":"Feature","properties":{"dxcc_id":"JT","name":"Mongolia","prefix":"JT","lat":46.0,"lon":105.0,"continent":"AS","cq_zone":23,"itu_zone":32,"deleted":false},"geometry":{"type":"Polygon","coordinates":[[[101.0,42.0],[109.0,42.0],[109.0,50.0],[101.0,50.0],[101.0,42.0]]]}},{"type":"Feature","properties":{"dxcc_id":"UN","name":"Kazakhstan","prefix":"UN","lat":48.0,"lon":68.0,"continent":"AS","cq_zone":17,"itu_zone":30,"deleted":false},"geometry":{"type":"Polygon","coordinates":[[[64.0,44.0],[72.0,44.0],[72.0,52.0],[64.0,52.0],[64.0,44.0]]]}},{"type":"Feature","properties":{"dxcc_id":"EK","name":"Armenia","prefix":"EK","lat":40.5,"lon":44.9,"continent":"AS","cq_zone":21,"itu_zone":29,"deleted":false},"geometry":{"type":"Polygon","coordinates":[[[43.1,38.7],[46.699999999999996,38.7],[46.699999999999996,42.3],[43.1,42.3],[43.1,38.7]]]}},{"type":"Feature","properties":{"dxcc_id":"4J","name":"Azerbaijan","prefix":"4J","lat":40.5,"lon":47.5,"continent":"AS","cq_zone":21,"itu_zone":29,"deleted":false},"geometry":{"type":"Polygon","coordinates":[[[45.7,38.7],[49.3,38.7],[49.3,42.3],[45.7,42.3],[45.7,38.7]]]}},{"type":"Feature","properties":{"dxcc_id":"4L","name":"Georgia","prefix":"4L","lat":42.0,"lon":44.0,"continent":"AS","cq_zone":21,"itu_zone":29,"deleted":false},"geometry":{"type":"Polygon","coordinates":[[[42.2,40.2],[45.8,40.2],[45.8,43.8],[42.2,43.8],[42.2,40.2]]]}},{"type":"Feature","properties":{"dxcc_id":"EY","name":"Tajikistan","prefix":"EY","lat":38.5,"lon":71.0,"continent":"AS","cq_zone":17,"itu_zone":30,"deleted":false},"geometry":{"type":"Polygon","coordinates":[[[69.2,36.7],[72.8,36.7],[72.8,40.3],[69.2,40.3],[69.2,36.7]]]}},{"type":"Feature","properties":{"dxcc_id":"EZ","name":"Turkmenistan","prefix":"EZ","lat":40.0,"lon":60.0,"continent":"AS","cq_zone":17,"itu_zone":30,"deleted":false},"geometry":{"type":"Polygon","coordinates":[[[58.2,38.2],[61.8,38.2],[61.8,41.8],[58.2,41.8],[58.2,38.2]]]}},{"type":"Feature","properties":{"dxcc_id":"UK","name":"Uzbekistan","prefix":"UK","lat":41.0,"lon":64.0,"continent":"AS","cq_zone":17,"itu_zone":30,"deleted":false},"geometry":{"type":"Polygon","coordinates":[[[60.0,37.0],[68.0,37.0],[68.0,45.0],[60.0,45.0],[60.0,37.0]]]}},{"type":"Feature","properties":{"dxcc_id":"EX","name":"Kyrgyzstan","prefix":"EX","lat":41.0,"lon":75.0,"continent":"AS","cq_zone":17,"itu_zone":30,"deleted":false},"geometry":{"type":"Polygon","coordinates":[[[73.2,39.2],[76.8,39.2],[76.8,42.8],[73.2,42.8],[73.2,39.2]]]}},{"type":"Feature","properties":{"dxcc_id":"P2","name":"Papua New Guinea","prefix":"P2","lat":-6.0,"lon":147.0,"continent":"OC","cq_zone":28,"itu_zone":51,"deleted":false},"geometry":{"type":"Polygon","coordinates":[[[145.2,-7.8],[148.8,-7.8],[148.8,-4.2],[145.2,-4.2],[145.2,-7.8]]]}},{"type":"Feature","properties":{"dxcc_id":"KH6","name":"Hawaii","prefix":"KH6","lat":21.0,"lon":-158.0,"continent":"OC","cq_zone":31,"itu_zone":61,"deleted":false},"geometry":{"type":"Polygon","coordinates":[[[-159.8,19.2],[-156.2,19.2],[-156.2,22.8],[-159.8,22.8],[-159.8,19.2]]]}},{"type":"Feature","properties":{"dxcc_id":"KL","name":"Alaska","prefix":"KL","lat":64.0,"lon":-153.0,"continent":"NA","cq_zone":1,"itu_zone":1,"deleted":false},"geometry":{"type":"Polygon","coordinates":[[[-154.8,62.2],[-151.2,62.2],[-151.2,65.8],[-154.8,65.8],[-154.8,62.2]]]}},{"type":"Feature","properties":{"dxcc_id":"TF","name":"Iceland","prefix":"TF","lat":65.0,"lon":-19.0,"continent":"EU","cq_zone":40,"itu_zone":17,"deleted":false},"geometry":{"type":"Polygon","coordinates":[[[-20.8,63.2],[-17.2,63.2],[-17.2,66.8],[-20.8,66.8],[-20.8,63.2]]]}},{"type":"Feature","properties":{"dxcc_id":"OY","name":"Faroe Islands","prefix":"OY","lat":62.0,"lon":-7.0,"continent":"EU","cq_zone":14,"itu_zone":18,"deleted":false},"geometry":{"type":"Polygon","coordinates":[[[-8.8,60.2],[-5.2,60.2],[-5.2,63.8],[-8.8,63.8],[-8.8,60.2]]]}},{"type":"Feature","properties":{"dxcc_id":"OX","name":"Greenland","prefix":"OX","lat":72.0,"lon":-42.0,"continent":"NA","cq_zone":5,"itu_zone":5,"deleted":false},"geometry":{"type":"Polygon","coordinates":[[[-46.0,68.0],[-38.0,68.0],[-38.0,76.0],[-46.0,76.0],[-46.0,68.0]]]}},{"type":"Feature","properties":{"dxcc_id":"JW","name":"Svalbard","prefix":"JW","lat":78.0,"lon":16.0,"continent":"EU","cq_zone":18,"itu_zone":18,"deleted":false},"geometry":{"type":"Polygon","coordinates":[[[14.2,76.2],[17.8,76.2],[17.8,79.8],[14.2,79.8],[14.2,76.2]]]}},{"type":"Feature","properties":{"dxcc_id":"ZA","name":"Albania","prefix":"ZA","lat":41.0,"lon":20.0,"continent":"EU","cq_zone":15,"itu_zone":28,"deleted":false},"geometry":{"type":"Polygon","coordinates":[[[18.2,39.2],[21.8,39.2],[21.8,42.8],[18.2,42.8],[18.2,39.2]]]}},{"type":"Feature","properties":{"dxcc_id":"SV9","name":"Crete","prefix":"SV9","lat":35.0,"lon":25.0,"continent":"EU","cq_zone":20,"itu_zone":28,"deleted":false},"geometry":{"type":"Polygon","coordinates":[[[23.2,33.2],[26.8,33.2],[26.8,36.8],[23.2,36.8],[23.2,33.2]]]}},{"type":"Feature","properties":{"dxcc_id":"IT9","name":"Sicily","prefix":"IT9","lat":37.5,"lon":14.0,"continent":"EU","cq_zone":15,"itu_zone":28,"deleted":false},"geometry":{"type":"Polygon","coordinates":[[[12.2,35.7],[15.8,35.7],[15.8,39.3],[12.2,39.3],[12.2,35.7]]]}},{"type":"Feature","properties":{"dxcc_id":"IS0","name":"Sardinia","prefix":"IS0","lat":40.0,"lon":9.0,"continent":"EU","cq_zone":15,"itu_zone":28,"deleted":false},"geometry":{"type":"Polygon","coordinates":[[[7.2,38.2],[10.8,38.2],[10.8,41.8],[7.2,41.8],[7.2,38.2]]]}},{"type":"Feature","properties":{"dxcc_id":"GD","name":"Isle of Man","prefix":"GD","lat":54.2,"lon":-4.5,"continent":"EU","cq_zone":14,"itu_zone":27,"deleted":false},"geometry":{"type":"Polygon","coordinates":[[[-6.3,52.400000000000006],[-2.7,52.400000000000006],[-2.7,56.0],[-6.3,56.0],[-6.3,52.400000000000006]]]}},{"type":"Feature","properties":{"dxcc_id":"GJ","name":"Jersey","prefix":"GJ","lat":49.2,"lon":-2.2,"continent":"EU","cq_zone":14,"itu_zone":27,"deleted":false},"geometry":{"type":"Polygon","coordinates":[[[-4.0,47.400000000000006],[-0.40000000000000013,47.400000000000006],[-0.40000000000000013,51.0],[-4.0,51.0],[-4.0,47.400000000000006]]]}},{"type":"Feature","properties":{"dxcc_id":"GU","name":"Guernsey","prefix":"GU","lat":49.5,"lon":-2.6,"continent":"EU","cq_zone":14,"itu_zone":27,"deleted":false},"geometry":{"type":"Polygon","coordinates":[[[-4.4,47.7],[-0.8,47.7],[-0.8,51.3],[-4.4,51.3],[-4.4,47.7]]]}},{"type":"Feature","properties":{"dxcc_id":"TK","name":"Corsica","prefix":"TK","lat":42.2,"lon":9.2,"continent":"EU","cq_zone":15,"itu_zone":28,"deleted":false},"geometry":{"type":"Polygon","coordinates":[[[7.3999999999999995,40.400000000000006],[11.0,40.400000000000006],[11.0,44.0],[7.3999999999999995,44.0],[7.3999999999999995,40.400000000000006]]]}},{"type":"Feature","properties":{"dxcc_id":"3A","name":"Monaco","prefix":"3A","lat":43.7,"lon":7.4,"continent":"EU","cq_zone":14,"itu_zone":27,"deleted":false},"geometry":{"type":"Polygon","coordinates":[[[5.6000000000000005,41.900000000000006],[9.200000000000001,41.900000000000006],[9.200000000000001,45.5],[5.6000000000000005,45.5],[5.6000000000000005,41.900000000000006]]]}},{"type":"Feature","properties":{"dxcc_id":"9H","name":"Malta","prefix":"9H","lat":35.9,"lon":14.4,"continent":"EU","cq_zone":15,"itu_zone":28,"deleted":false},"geometry":{"type":"Polygon","coordinates":[[[12.6,34.1],[16.2,34.1],[16.2,37.699999999999996],[12.6,37.699999999999996],[12.6,34.1]]]}},{"type":"Feature","properties":{"dxcc_id":"Z2","name":"Zimbabwe","prefix":"Z2","lat":-20.0,"lon":30.0,"continent":"AF","cq_zone":38,"itu_zone":53,"deleted":false},"geometry":{"type":"Polygon","coordinates":[[[28.2,-21.8],[31.8,-21.8],[31.8,-18.2],[28.2,-18.2],[28.2,-21.8]]]}},{"type":"Feature","properties":{"dxcc_id":"9J","name":"Zambia","prefix":"9J","lat":-13.5,"lon":28.5,"continent":"AF","cq_zone":37,"itu_zone":53,"deleted":false},"geometry":{"type":"Polygon","coordinates":[[[24.5,-17.5],[32.5,-17.5],[32.5,-9.5],[24.5,-9.5],[24.5,-17.5]]]}},{"type":"Feature","properties":{"dxcc_id":"7Q","name":"Malawi","prefix":"7Q","lat":-13.5,"lon":34.0,"continent":"AF","cq_zone":37,"itu_zone":53,"deleted":false},"geometry":{"type":"Polygon","coordinates":[[[32.2,-15.3],[35.8,-15.3],[35.8,-11.7],[32.2,-11.7],[32.2,-15.3]]]}},{"type":"Feature","properties":{"dxcc_id":"C9","name":"Mozambique","prefix":"C9","lat":-18.0,"lon":35.0,"continent":"AF","cq_zone":37,"itu_zone":53,"deleted":false},"geometry":{"type":"Polygon","coordinates":[[[31.0,-22.0],[39.0,-22.0],[39.0,-14.0],[31.0,-14.0],[31.0,-22.0]]]}},{"type":"Feature","properties":{"dxcc_id":"V5","name":"Namibia","prefix":"V5","lat":-22.0,"lon":17.0,"continent":"AF","cq_zone":38,"itu_zone":57,"deleted":false},"geometry":{"type":"Polygon","coordinates":[[[15.2,-23.8],[18.8,-23.8],[18.8,-20.2],[15.2,-20.2],[15.2,-23.8]]]}},{"type":"Feature","properties":{"dxcc_id":"A2","name":"Botswana","prefix":"A2","lat":-22.0,"lon":24.0,"continent":"AF","cq_zone":38,"itu_zone":57,"deleted":false},"geometry":{"type":"Polygon","coordinates":[[[22.2,-23.8],[25.8,-23.8],[25.8,-20.2],[22.2,-20.2],[22.2,-23.8]]]}},{"type":"Feature","properties":{"dxcc_id":"9X","name":"Rwanda","prefix":"9X","lat":-2.0,"lon":30.0,"continent":"AF","cq_zone":36,"itu_zone":52,"deleted":false},"geometry":{"type":"Polygon","coordinates":[[[28.2,-3.8],[31.8,-3.8],[31.8,-0.19999999999999996],[28.2,-0.19999999999999996],[28.2,-3.8]]]}},{"type":"Feature","properties":{"dxcc_id":"5H","name":"Tanzania","prefix":"5H","lat":-6.0,"lon":35.0,"continent":"AF","cq_zone":37,"itu_zone":53,"deleted":false},"geometry":{"type":"Polygon","coordinates":[[[31.0,-10.0],[39.0,-10.0],[39.0,-2.0],[31.0,-2.0],[31.0,-10.0]]]}},{"type":"Feature","properties":{"dxcc_id":"5Z","name":"Kenya","prefix":"5Z","lat":-0.5,"lon":37.5,"continent":"AF","cq_zone":37,"itu_zone":52,"deleted":false},"geometry":{"type":"Polygon","coordinates":[[[35.7,-2.3],[39.3,-2.3],[39.3,1.3],[35.7,1.3],[35.7,-2.3]]]}},{"type":"Feature","properties":{"dxcc_id":"ET","name":"Ethiopia","prefix":"ET","lat":8.0,"lon":38.0,"continent":"AF","cq_zone":34,"itu_zone":48,"deleted":false},"geometry":{"type":"Polygon","coordinates":[[[34.0,4.0],[42.0,4.0],[42.0,12.0],[34.0,12.0],[34.0,4.0]]]}},{"type":"Feature","properties":{"dxcc_id":"ST","name":"Sudan","prefix":"ST","lat":15.0,"lon":30.0,"continent":"AF","cq_zone":34,"itu_zone":48,"deleted":false},"geometry":{"type":"Polygon","coordinates":[[[26.0,11.0],[34.0,11.0],[34.0,19.0],[26.0,19.0],[26.0,11.0]]]}},{"type":"Feature","properties":{"dxcc_id":"SU","name":"Egypt","prefix":"SU","lat":27.0,"lon":30.0,"continent":"AF","cq_zone":34,"itu_zone":38,"deleted":false},"geometry":{"type":"Polygon","coordinates":[[[28.2,25.2],[31.8,25.2],[31.8,28.8],[28.2,28.8],[28.2,25.2]]]}},{"type":"Feature","properties":{"dxcc_id":"6W","name":"Senegal","prefix":"6W","lat":14.0,"lon":-14.0,"continent":"AF","cq_zone":35,"itu_zone":46,"deleted":false},"geometry":{"type":"Polygon","coordinates":[[[-15.8,12.2],[-12.2,12.2],[-12.2,15.8],[-15.8,15.8],[-15.8,12.2]]]}},{"type":"Feature","properties":{"dxcc_id":"TU","name":"Ivory Coast","prefix":"TU","lat":7.5,"lon":-5.5,"continent":"AF","cq_zone":35,"itu_zone":46,"deleted":false},"geometry":{"type":"Polygon","coordinates":[[[-7.3,5.7],[-3.7,5.7],[-3.7,9.3],[-7.3,9.3],[-7.3,5.7]]]}},{"type":"Feature","properties":{"dxcc_id":"9G","name":"Ghana","prefix":"9G","lat":8.0,"lon":-2.0,"continent":"AF","cq_zone":35,"itu_zone":46,"deleted":false},"geometry":{"type":"Polygon","coordinates":[[[-3.8,6.2],[-0.19999999999999996,6.2],[-0.19999999999999996,9.8],[-3.8,9.8],[-3.8,6.2]]]}},{"type":"Feature","properties":{"dxcc_id":"5N","name":"Nigeria","prefix":"5N","lat":9.0,"lon":8.0,"continent":"AF","cq_zone":35,"itu_zone":46,"deleted":false},"geometry":{"type":"Polygon","coordinates":[[[6.2,7.2],[9.8,7.2],[9.8,10.8],[6.2,10.8],[6.2,7.2]]]}},{"type":"Feature","properties":{"dxcc_id":"TJ","name":"Cameroon","prefix":"TJ","lat":4.5,"lon":12.5,"continent":"AF","cq_zone":36,"itu_zone":47,"deleted":false},"geometry":{"type":"Polygon","coordinates":[[[10.7,2.7],[14.3,2.7],[14.3,6.3],[10.7,6.3],[10.7,2.7]]]}},{"type":"Feature","properties":{"dxcc_id":"TR","name":"Gabon","prefix":"TR","lat":-1.0,"lon":12.0,"continent":"AF","cq_zone":36,"itu_zone":52,"deleted":false},"geometry":{"type":"Polygon","coordinates":[[[10.2,-2.8],[13.8,-2.8],[13.8,0.8],[10.2,0.8],[10.2,-2.8]]]}},{"type":"Feature","properties":{"dxcc_id":"9Q","name":"DR Congo","prefix":"9Q","lat":-4.0,"lon":23.0,"continent":"AF","cq_zone":36,"itu_zone":52,"deleted":false},"geometry":{"type":"Polygon","coordinates":[[[19.0,-8.0],[27.0,-8.0],[27.0,0.0],[19.0,0.0],[19.0,-8.0]]]}},{"type":"Feature","properties":{"dxcc_id":"3B8","name":"Mauritius","prefix":"3B8","lat":-20.2,"lon":57.5,"continent":"AF","cq_zone":39,"itu_zone":53,"deleted":false},"geometry":{"type":"Polygon","coordinates":[[[55.7,-22.0],[59.3,-22.0],[59.3,-18.4],[55.7,-18.4],[55.7,-22.0]]]}},{"type":"Feature","properties":{"dxcc_id":"FR","name":"Reunion Island","prefix":"FR","lat":-21.1,"lon":55.5,"continent":"AF","cq_zone":39,"itu_zone":53,"deleted":false},"geometry":{"type":"Polygon","coordinates":[[[53.7,-22.900000000000002],[57.3,-22.900000000000002],[57.3,-19.3],[53.7,-19.3],[53.7,-22.900000000000002]]]}},{"type":"Feature","properties":{"dxcc_id":"VK9N","name":"Norfolk Island","prefix":"VK9N","lat":-29.0,"lon":168.0,"continent":"OC","cq_zone":32,"itu_zone":60,"deleted":false},"geometry":{"type":"Polygon","coordinates":[[[166.2,-30.8],[169.8,-30.8],[169.8,-27.2],[166.2,-27.2],[166.2,-30.8]]]}},{"type":"Feature","properties":{"dxcc_id":"KH0","name":"Mariana Islands","prefix":"KH0","lat":15.2,"lon":145.7,"continent":"OC","cq_zone":27,"itu_zone":64,"deleted":false},"geometry":{"type":"Polygon","coordinates":[[[143.89999999999998,13.399999999999999],[147.5,13.399999999999999],[147.5,17.0],[143.89999999999998,17.0],[143.89999999999998,13.399999999999999]]]}},{"type":"Feature","properties":{"dxcc_id":"KH2","name":"Guam","prefix":"KH2","lat":13.5,"lon":144.8,"continent":"OC","cq_zone":27,"itu_zone":64,"deleted":false},"geometry":{"type":"Polygon","coordinates":[[[143.0,11.7],[146.60000000000002,11.7],[146.60000000000002,15.3],[143.0,15.3],[143.0,11.7]]]}},{"type":"Feature","properties":{"dxcc_id":"T88","name":"Palau","prefix":"T88","lat":7.5,"lon":134.5,"continent":"OC","cq_zone":27,"itu_zone":64,"deleted":false},"geometry":{"type":"Polygon","coordinates":[[[132.7,5.7],[136.3,5.7],[136.3,9.3],[132.7,9.3],[132.7,5.7]]]}},{"type":"Feature","properties":{"dxcc_id":"V6","name":"Micronesia","prefix":"V6","lat":7.0,"lon":158.0,"continent":"OC","cq_zone":28,"itu_zone":65,"deleted":false},"geometry":{"type":"Polygon","coordinates":[[[156.2,5.2],[159.8,5.2],[159.8,8.8],[156.2,8.8],[156.2,5.2]]]}},{"type":"Feature","properties":{"dxcc_id":"V7","name":"Marshall Islands","prefix":"V7","lat":9.0,"lon":168.0,"continent":"OC","cq_zone":31,"itu_zone":65,"deleted":false},"geometry":{"type":"Polygon","coordinates":[[[166.2,7.2],[169.8,7.2],[169.8,10.8],[166.2,10.8],[166.2,7.2]]]}},{"type":"Feature","properties":{"dxcc_id":"3D2","name":"Fiji","prefix":"3D2","lat":-18.0,"lon":178.0,"continent":"OC","cq_zone":28,"itu_zone":56,"deleted":false},"geometry":{"type":"Polygon","coordinates":[[[176.2,-19.8],[179.8,-19.8],[179.8,-16.2],[176.2,-16.2],[176.2,-19.8]]]}},{"type":"Feature","properties":{"dxcc_id":"YJ","name":"Vanuatu","prefix":"YJ","lat":-16.0,"lon":168.0,"continent":"OC","cq_zone":28,"itu_zone":56,"deleted":false},"geometry":{"type":"Polygon","coordinates":[[[166.2,-17.8],[169.8,-17.8],[169.8,-14.2],[166.2,-14.2],[166.2,-17.8]]]}},{"type":"Feature","properties":{"dxcc_id":"H4","name":"Solomon Islands","prefix":"H4","lat":-9.5,"lon":160.0,"continent":"OC","cq_zone":28,"itu_zone":51,"deleted":false},"geometry":{"type":"Polygon","coordinates":[[[158.2,-11.3],[161.8,-11.3],[161.8,-7.7],[158.2,-7.7],[158.2,-11.3]]]}},{"type":"Feature","properties":{"dxcc_id":"5W","name":"Samoa","prefix":"5W","lat":-14.0,"lon":-172.0,"continent":"OC","cq_zone":32,"itu_zone":62,"deleted":false},"geometry":{"type":"Polygon","coordinates":[[[-173.8,-15.8],[-170.2,-15.8],[-170.2,-12.2],[-173.8,-12.2],[-173.8,-15.8]]]}},{"type":"Feature","properties":{"dxcc_id":"A3","name":"Tonga","prefix":"A3","lat":-21.0,"lon":-175.0,"continent":"OC","cq_zone":32,"itu_zone":62,"deleted":false},"geometry":{"type":"Polygon","coordinates":[[[-176.8,-22.8],[-173.2,-22.8],[-173.2,-19.2],[-176.8,-19.2],[-176.8,-22.8]]]}}]}